[{"OBJECT_NAME":"LACUNASAT-4D","OBJECT_ID":"2025-276DW","EPOCH":"2026-03-09T17:30:33.252192","MEAN_MOTION":14.98548204,"ECCENTRICITY":0.00108499,"INCLINATION":97.5312,"RA_OF_ASC_NODE":142.8344,"ARG_OF_PERICENTER":115.0636,"MEAN_ANOMALY":245.1714,"EPHEMERIS_TYPE":0,"CLASSIFICATION_TYPE":"U","NORAD_CAT_ID":66781,"ELEMENT_SET_NO":999,"REV_AT_EPOCH":772,"BSTAR":0.00086123106,"MEAN_MOTION_DOT":0.00010278,"MEAN_MOTION_DDOT":0},{"OBJECT_NAME":"TIROS 5","OBJECT_ID":"1962-025A","EPOCH":"2026-03-09T18:19:03.462528","MEAN_MOTION":14.60548226,"ECCENTRICITY":0.0188246,"INCLINATION":58.0885,"RA_OF_ASC_NODE":225.1954,"ARG_OF_PERICENTER":128.0206,"MEAN_ANOMALY":233.7985,"EPHEMERIS_TYPE":0,"CLASSIFICATION_TYPE":"U","NORAD_CAT_ID":309,"ELEMENT_SET_NO":999,"REV_AT_EPOCH":36730,"BSTAR":0.00024813109,"MEAN_MOTION_DOT":1.341e-5,"MEAN_MOTION_DDOT":0}]
